{"type": "FeatureCollection", "features": [{"type": "Feature", "properties": {"wf_id": 0}, "geometry": {"type": "LineString", "coordinates": [[164.87014677380753, 43.66567417413852], [164.99636777981002, 43.74334863937082], [165.15171671027463, 43.85986033721927], [165.25851909996902, 43.937534802451566], [165.4041587222796, 44.015209267683865], [165.71485658320879, 44.189976814456536], [165.90904274628951, 44.296779204150944], [166.12264752567833, 44.442418826461505], [166.43334538660753, 44.56863983246399], [166.5789850089181, 44.65602360585033], [166.63724085784233, 44.70457014662051]]}}]}