{"type": "FeatureCollection", "features": [{"type": "Feature", "properties": {"wf_id": 6}, "geometry": {"type": "LineString", "coordinates": [[165.61201507402586, 45.80693304403312], [165.94719317964777, 46.13305228193551], [166.28237128526968, 46.404818313520835], [166.59943165545258, 46.676584345106164], [166.92555089335497, 46.984585847569534], [167.25167013125736, 47.27446961459388], [167.4600240888061, 47.500941307581655], [167.65931917863534, 47.83611941320356], [167.795202194428, 48.062591106191334], [167.89497862716908, 48.42056682364897], [167.94460011307845, 48.80873184051575], [167.94482284853572, 49.417451250981486], [167.89497862716908, 49.866049243281125], [167.79529018443583, 50.34787671649184]]}}]}