{"type": "FeatureCollection", "features": [{"type": "Feature", "properties": {"wf_id": 1}, "geometry": {"type": "LineString", "coordinates": [[164.97694916350196, 44.03462788399194], [165.2002632510448, 44.15113958184038], [165.3847401059715, 44.24823266338076], [165.52067042012803, 44.316197820459024], [165.72456589136283, 44.46183744276958], [165.8993334381355, 44.57834914061803], [166.14206614198642, 44.665732914004366], [166.35567092137524, 44.80166322816088], [166.66636878230443, 44.995849391241634], [166.7925897883069, 45.10265178093604]]}}]}