{"type": "FeatureCollection", "features": [{"type": "Feature", "properties": {"wf_id": 3}, "geometry": {"type": "LineString", "coordinates": [[165.22939117550692, 44.70457014662051], [165.49154249566593, 44.85991907708511], [165.6954379669007, 44.96672146677952], [165.88962412998146, 45.073523856473926], [166.12264752567833, 45.228872786938524], [166.5013105436858, 45.53957064786772], [166.77317117199885, 45.76288473541058], [167.00619456769573, 45.93765228218325], [167.25863657970072, 46.160966369726104]]}}]}