{"type": "FeatureCollection", "features": [{"type": "Feature", "properties": {"wf_id": 8}, "geometry": {"type": "LineString", "coordinates": [[165.99785008578323, 46.84189938418321], [166.26044219003435, 47.037160179652], [166.51630116340723, 47.23242097512079], [166.69809569711956, 47.40748237795488], [166.90682275434483, 47.5892769116672], [167.06841789542244, 47.85186901591833], [167.18288112035242, 48.15485990543887], [167.27041182176947, 48.430918271446465], [167.30407747616064, 48.81470673150581], [167.29061121440418, 49.19176206068692], [167.2771449526477, 49.521685473720396], [167.26367869089123, 49.79774383972799]]}}]}