{"type": "FeatureCollection", "features": [{"type": "Feature", "properties": {"wf_id": 7}, "geometry": {"type": "LineString", "coordinates": [[165.8747222378917, 46.47728925527693], [166.2099003435136, 46.68564321282568], [166.46824962867055, 46.87940517669339], [166.66201159253825, 47.07316714056109], [166.9365077080175, 47.30729618023457], [167.18678357801326, 47.57345844780553], [167.30397831422357, 47.80784792022614], [167.4787286875505, 48.10174627536687], [167.58199027178915, 48.316212642631726], [167.59787666936433, 48.53067900989659], [167.58199027178915, 48.84840696140008], [167.6058198681519, 49.18202131047875], [167.6058198681519, 49.49180606319466], [167.6137630669395, 49.79364761712298], [167.51342828231168, 50.23720074752311]]}}]}