{"type": "FeatureCollection", "features": [{"type": "Feature", "properties": {"wf_id": 5}, "geometry": {"type": "LineString", "coordinates": [[165.4670731905137, 45.38116626121611], [165.73883922209902, 45.57140248332583], [166.07401732772092, 45.86128625035018], [166.3004890207087, 46.078699075618445], [166.5631961845745, 46.31422963632573], [166.8711976870379, 46.56787793247204], [167.07955164458664, 46.79434962545981], [167.34225880845247, 47.02988018616709], [167.6412014431963, 47.31976395319144], [167.8676731361841, 47.65494205881334], [168.01261501969626, 47.90859035495965], [168.1394391677694, 48.19847412198399]]}}]}