{"type": "FeatureCollection", "features": [{"type": "Feature", "properties": {"wf_id": 4}, "geometry": {"type": "LineString", "coordinates": [[165.3556121815094, 45.08323316462797], [165.57892626905226, 45.16090762986027], [165.8799148218274, 45.38422171740312], [166.2197406072187, 45.64637303756213], [166.41392677029947, 45.8211405843348], [166.71491532307462, 46.07358259633977], [166.93822941061748, 46.2386408349584], [167.1809621144684, 46.46195492250126], [167.36543896939511, 46.71439693450623], [167.56933444062992, 46.957129638357166]]}}]}