{"type": "FeatureCollection", "features": [{"type": "Feature", "properties": {"wf_id": 2}, "geometry": {"type": "LineString", "coordinates": [[165.0934608613504, 44.37445366938324], [165.2779377162771, 44.471546750923615], [165.48183318751188, 44.58805844877207], [165.65660073428455, 44.71427945477455], [165.87020551367337, 44.81137253631492], [165.98671721152184, 44.87933769339318], [166.1614847582945, 44.98614008308759], [166.30712438060505, 45.092942472782006], [166.52072915999386, 45.248291403246604], [166.69549670676653, 45.423058950019275], [166.8411363290771, 45.549279956021756], [166.98677595138767, 45.66579165387021], [167.09357834108206, 45.753175427256544]]}}]}