{"type": "FeatureCollection", "features": [{"type": "Feature", "properties": {"wf_id": 1}, "geometry": {"type": "LineString", "coordinates": [[166.27629022495591, 47.5395154985744], [166.4589691152335, 47.67412099667366], [166.64164800551103, 47.827955851644234], [166.92070661370082, 48.070433934518455], [167.14200683555586, 48.335994200744516], [167.3278990219141, 48.636962502467384], [167.50493919939814, 48.99989486630966], [167.6896479549981, 49.35668972291435], [167.77618006091905, 49.702818146598155], [167.83386813153302, 49.99125849966799], [167.8146387746617, 50.2123961036882]]}}]}